API VERSION: 1.2
API SOURCE: NASA/JPL Horizons API



*******************************************************************************
Ephemeris / API_USER Mon Apr 13 11:58:40 2026 Pasadena, USA      / Horizons
*******************************************************************************
Target body name: Earth (399)                     {source: DE441}
Center body name: Sun (10)                        {source: DE441}
Center-site name: BODY CENTER
*******************************************************************************
Start time      : A.D. 2025-Dec-20 23:30:00.0000 TDB
Stop  time      : A.D. 2025-Dec-22 23:30:00.0000 TDB
Step-size       : 60 minutes
*******************************************************************************
Center geodetic : 0.0, 0.0, 0.0                   {E-lon(deg),Lat(deg),Alt(km)}
Center cylindric: 0.0, 0.0, 0.0                   {E-lon(deg),Dxy(km),Dz(km)}
Center radii    : 695700.0, 695700.0, 695700.0 km {Equator_a, b, pole_c}
Output units    : AU-D
Calendar mode   : Mixed Julian/Gregorian
Output type     : GEOMETRIC cartesian states
Output format   : 3 (position, velocity, LT, range, range-rate)
Reference frame : Ecliptic of J2000.0
*******************************************************************************
            JDTDB,            Calendar Date (TDB),                      X,                      Y,                      Z,                     VX,                     VY,                     VZ,                     LT,                     RG,                     RR,
**************************************************************************************************************************************************************************************************************************************************************************
$$SOE
2461031.729166667, A.D. 2025-Dec-22 05:30:00.0000, -4.360968749742311E-03,  9.837509175478146E-01, -5.663880589276047E-05, -1.748996680836042E-02, -1.437994661523412E-04, -3.301408089590505E-07,  5.681727293683768E-03,  9.837605852200818E-01, -6.626575649155172E-05,
2461031.770833333, A.D. 2025-Dec-22 06:30:00.0000, -5.089715573236169E-03,  9.837446592753367E-01, -5.665263181347011E-05, -1.748987905651615E-02, -1.565975835392098E-04, -3.334980050485659E-07,  5.681711366125477E-03,  9.837578274488521E-01, -6.610723284333428E-05,
2461031.812500000, A.D. 2025-Dec-22 07:30:00.0000, -5.818458532556670E-03,  9.837378677517075E-01, -5.666659694249027E-05, -1.748978132821032E-02, -1.693955194130527E-04, -3.368227486500853E-07,  5.681695476736929E-03,  9.837550762865085E-01, -6.594852941518141E-05,
2461031.854166667, A.D. 2025-Dec-22 08:30:00.0000, -6.547197212039601E-03,  9.837305429847399E-01, -5.668069991987142E-05, -1.748967362449118E-02, -1.821932617844755E-04, -3.401146615468246E-07,  5.681679625561779E-03,  9.837523317406096E-01, -6.578964296552220E-05,
2461031.895833333, A.D. 2025-Dec-22 09:30:00.0000, -7.275931196065373E-03,  9.837226849827463E-01, -5.669493936977654E-05, -1.748955594645298E-02, -1.949907986635857E-04, -3.433733666810545E-07,  5.681663812644458E-03,  9.837495938188486E-01, -6.563057024906030E-05,
2461031.937500000, A.D. 2025-Dec-22 10:30:00.0000, -8.004660069060957E-03,  9.837142937545383E-01, -5.670931390058074E-05, -1.748942829523610E-02, -2.077881180602729E-04, -3.465984881816803E-07,  5.681648038030181E-03,  9.837468625290542E-01, -6.547130801690362E-05,
2461031.979166667, A.D. 2025-Dec-22 11:30:00.0000, -8.733383415501802E-03,  9.837053693094282E-01, -5.672382210541904E-05, -1.748929067202714E-02, -2.205852079844899E-04, -3.497896513912282E-07,  5.681632301764949E-03,  9.837441378791909E-01, -6.531185301669550E-05,
2461032.020833333, A.D. 2025-Dec-22 12:30:00.0000, -9.462100819913763E-03,  9.836959116572269E-01, -5.673846256143941E-05, -1.748914307805900E-02, -2.333820564465333E-04, -3.529464828934745E-07,  5.681616603895543E-03,  9.837414198773589E-01, -6.515220199274460E-05,
2461032.062500000, A.D. 2025-Dec-22 13:30:00.0000, -1.019081186687503E-02,  9.836859208082442E-01, -5.675323383030073E-05, -1.748898551461102E-02, -2.461786514573256E-04, -3.560686105404471E-07,  5.681600944469524E-03,  9.837387085317923E-01, -6.499235168615537E-05,
2461032.104166667, A.D. 2025-Dec-22 14:30:00.0000, -1.091951614101808E-02,  9.836753967732920E-01, -5.676813445857127E-05, -1.748881798300905E-02, -2.589749810286971E-04, -3.591556634801506E-07,  5.681585323535244E-03,  9.837360038508646E-01, -6.483229883495912E-05,
2461032.145833333, A.D. 2025-Dec-22 15:30:00.0000, -1.164821322703158E-02,  9.836643395636787E-01, -5.678316297673257E-05, -1.748864048462558E-02, -2.717710331736683E-04, -3.622072721835289E-07,  5.681569741141835E-03,  9.837333058430818E-01, -6.467204017424325E-05,
2461032.187500000, A.D. 2025-Dec-22 16:30:00.0000, -1.237690270966238E-02,  9.836527491912138E-01, -5.679831790047438E-05, -1.748845302087979E-02, -2.845667959067338E-04, -3.652230684720048E-07,  5.681554197339219E-03,  9.837306145170874E-01, -6.451157243628231E-05,
2461032.229166667, A.D. 2025-Dec-22 17:30:00.0000, -1.310558417371743E-02,  9.836406256682059E-01, -5.681359772994757E-05, -1.748825559323771E-02, -2.973622572441451E-04, -3.682026855449720E-07,  5.681538692178102E-03,  9.837279298816614E-01, -6.435089235066796E-05,
2461032.270833333, A.D. 2025-Dec-22 18:30:00.0000, -1.383425720406573E-02,  9.836279690074624E-01, -5.682900094996339E-05, -1.748804820321224E-02, -3.101574052041948E-04, -3.711457580069823E-07,  5.681523225709978E-03,  9.837252519457194E-01, -6.418999664443964E-05,
2461032.312500000, A.D. 2025-Dec-22 19:30:00.0000, -1.456292138564032E-02,  9.836147792222911E-01, -5.684452603049145E-05, -1.748783085236335E-02, -3.229522278075018E-04, -3.740519218952853E-07,  5.681507797987134E-03,  9.837225807183146E-01, -6.402888204221462E-05,
2461032.354166667, A.D. 2025-Dec-22 20:30:00.0000, -1.529157630344020E-02,  9.836010563264971E-01, -5.686017142581309E-05, -1.748760354229805E-02, -3.357467130772956E-04, -3.769208147071280E-07,  5.681492409062636E-03,  9.837199162086350E-01, -6.386754526631779E-05,
2461032.395833333, A.D. 2025-Dec-22 21:30:00.0000, -1.602022154253233E-02,  9.835868003343856E-01, -5.687593557561709E-05, -1.748736627467058E-02, -3.485408490397026E-04, -3.797520754275830E-07,  5.681477058990344E-03,  9.837172584260065E-01, -6.370598303691305E-05,
2461032.437500000, A.D. 2025-Dec-22 22:30:00.0000, -1.674885668805355E-02,  9.835720112607615E-01, -5.689181690445176E-05, -1.748711905118245E-02, -3.613346237240316E-04, -3.825453445565437E-07,  5.681461747824912E-03,  9.837146073798920E-01, -6.354419207213288E-05,
2461032.479166667, A.D. 2025-Dec-22 23:30:00.0000, -1.747748132521262E-02,  9.835566891209264E-01, -5.690781382172498E-05, -1.748686187358259E-02, -3.741280251630612E-04, -3.853002641366481E-07,  5.681446475621778E-03,  9.837119630798901E-01, -6.338216908820845E-05,
